0 FENGYUN 1C DEB
1 29933U 99025JF  19184.99138314  .00000655  00000-0  27270-3 0  9999
2 29933  98.8690 197.5858 0012514 108.8016 312.4575 14.29757894646759
0 FENGYUN 1C DEB
1 29934U 99025JG  19184.62337485  .00000244  00000-0  74268-4 0  9994
2 29934  98.8728  66.9157 0132145 152.3261 208.5044 14.46472489656314
0 FENGYUN 1C DEB
1 29935U 99025JH  19185.16396109 -.00000034  00000-0  22767-5 0  9999
2 29935  98.4040 332.9757 0154054 127.0411 287.0906 14.12917932643134
0 FENGYUN 1C DEB
1 29936U 99025JJ  19184.82835322  .00000014  00000-0  20587-4 0  9991
2 29936  98.5913 278.8443 0116744 304.6004  54.4211 14.32981927652064
0 FENGYUN 1C DEB
1 29937U 99025JK  19184.94607937 -.00000005 +00000-0 +24792-4 0  9997
2 29937 099.0687 213.9264 0033240 100.6858 017.0629 14.03918557639059
0 FENGYUN 1C DEB
1 29938U 99025JL  19185.51165245 -.00000110  00000-0 -40816-4 0  9996
2 29938  98.8339 212.1637 0035326  86.6029  76.7487 14.06208982639765
0 FENGYUN 1C DEB
1 29939U 99025JM  19184.95470792 +.00000006 +00000-0 +27224-4 0  9990
2 29939 098.8257 212.0674 0066404 343.3703 110.1544 14.11556628642500
0 FENGYUN 1C DEB
1 29940U 99025JN  19184.73297436 +.00000125 +00000-0 +87512-4 0  9998
2 29940 098.8116 219.8654 0078648 349.0371 076.7809 14.13416295641963
0 FENGYUN 1C DEB
1 29941U 99025JP  19184.71825066  .00001037  00000-0  22108-3 0  9995
2 29941  98.8723  92.2860 0071228 109.0251 279.6000 14.59747244657053
0 FENGYUN 1C DEB
1 29942U 99025JQ  19185.05065561  .00000231  00000-0  12106-3 0  9992
2 29942  98.8927 220.9176 0052991 265.0384  94.4743 14.23184069643543
0 FENGYUN 1C DEB
1 29943U 99025JR  19184.92907830 -.00000061 +00000-0 -96040-5 0  9996
2 29943 098.9136 213.4713 0036444 034.3302 038.4931 14.09219381641515
0 FENGYUN 1C DEB
1 29944U 99025JS  19185.07712194  .00000206  00000-0  39606-4 0  9994
2 29944  99.0600 212.9583 0252720 276.4254 139.5625 14.58397403659850
0 FENGYUN 1C DEB
1 29945U 99025JT  19185.07119338 -.00000123  00000-0 -48538-4 0  9990
2 29945  99.0653 214.5783 0032391  92.3298 321.1373 14.04664749639366
0 FENGYUN 1C DEB
1 29946U 99025JU  19184.56670319 -.00000132 +00000-0 -52923-4 0  9998
2 29946 098.8426 213.6183 0083987 126.4014 024.8344 14.06248070639450
0 FENGYUN 1C DEB
1 29947U 99025JV  19184.73183578 +.00000098 +00000-0 +93181-4 0  9994
2 29947 099.1321 216.6682 0041509 171.3333 254.1094 14.01883068637593
0 FENGYUN 1C DEB
1 29948U 99025JW  19184.89824282 +.00000041 +00000-0 +50479-4 0  9997
2 29948 098.8243 211.3630 0085694 000.3699 120.4510 14.05028351639148
0 FENGYUN 1C DEB
1 29949U 99025JX  19185.07262550 -.00000074  00000-0 -18176-4 0  9999
2 29949  99.0022 214.1528 0025168  64.8023 353.8084 14.06430437640299
0 FENGYUN 1C DEB
1 29950U 99025JY  19184.95610057 +.00000077 +00000-0 +69399-4 0  9990
2 29950 099.0330 213.3661 0034169 035.1638 029.0382 14.09336239641298
0 FENGYUN 1C DEB
1 29953U 99025KB  19185.11238942 -.00000014  00000-0  22542-4 0  9992
2 29953  99.0516 230.8246 0112502 187.1391 227.6121 13.88814227631944
0 FENGYUN 1C DEB
1 29954U 99025KC  19184.96467927  .00000128  00000-0  78305-4 0  9995
2 29954 100.1670 179.5698 0088102 332.3463  27.3040 14.23520733646433
0 FENGYUN 1C DEB
1 29955U 99025KD  19184.71177493 +.00000595 +00000-0 +28753-3 0  9994
2 29955 099.2698 085.6950 0008179 133.8331 246.1578 14.22632324644832
0 FENGYUN 1C DEB
1 29956U 99025KE  19184.95183428 +.00000235 +00000-0 +16958-3 0  9991
2 29956 099.0826 213.0283 0054749 114.9364 308.3660 14.05637068639782
0 FENGYUN 1C DEB
1 29957U 99025KF  19184.86447510 +.00000601 +00000-0 +34024-3 0  9998
2 29957 098.9596 249.1517 0067988 092.2484 329.5939 14.12706280640399
0 FENGYUN 1C DEB
1 29958U 99025KG  19184.64574636  .00000032  00000-0  40708-4 0  9990
2 29958  98.8898 215.9819 0058928 178.5896 181.5452 14.11925342642275
0 FENGYUN 1C DEB
1 29959U 99025KH  19185.03663839  .00000093  00000-0  85558-4 0  9998
2 29959  99.0933 214.1962 0043645  56.2033   4.7624 14.04686286639012
0 FENGYUN 1C DEB
1 29960U 99025KJ  19185.05578609  .00000124  00000-0  86301-4 0  9994
2 29960  98.6920 226.1735 0096740 176.7675 212.2673 14.12516338642147
0 FENGYUN 1C DEB
1 29961U 99025KK  19185.45184993  .00000028  00000-0  31614-4 0  9998
2 29961  99.0127 328.7462 0075803 229.3932 130.0635 14.24315641648155
0 FENGYUN 1C DEB
1 29962U 99025KL  19185.07432628 -.00000027  00000-0  10163-4 0  9994
2 29962  98.9570 214.8027 0111893 344.1488  67.8734 14.05676479639380
0 FENGYUN 1C DEB
1 29963U 99025KM  19185.33863939  .00000194  00000-0  10544-3 0  9993
2 29963  99.0064 321.4086 0053391 219.8528 193.1315 14.22899049646466
0 FENGYUN 1C DEB
1 29964U 99025KN  19184.96323041 +.00000003 +00000-0 +26949-4 0  9993
2 29964 098.3670 187.6705 0145709 028.9399 331.9747 13.96213151634228
0 FENGYUN 1C DEB
1 29965U 99025KP  19184.97223437 -.00000112 +00000-0 -47221-4 0  9992
2 29965 099.0353 212.2291 0148066 046.0837 014.5239 13.94578116634602
0 FENGYUN 1C DEB
1 29966U 99025KQ  19184.90374958 +.00000084 +00000-0 +61475-4 0  9994
2 29966 099.5084 186.1850 0042492 153.8660 206.4671 14.21100893645783
0 FENGYUN 1C DEB
1 29967U 99025KR  19183.58221885  .00000542  00000-0  31793-3 0  9996
2 29967  99.0305 224.9590 0090309 129.3649  24.6174 14.10409849639593
0 FENGYUN 1C DEB
1 29968U 99025KS  19184.95496860 +.00000237 +00000-0 +16455-3 0  9995
2 29968 098.8357 212.0661 0092823 128.5089 297.3625 14.05742498639681
0 FENGYUN 1C DEB
1 29969U 99025KT  19184.80599508 +.00000419 +00000-0 +22803-3 0  9999
2 29969 098.9238 232.8997 0050608 345.9055 078.4731 14.17002937642170
0 FENGYUN 1C DEB
1 29970U 99025KU  19184.93934417 +.00000151 +00000-0 +64627-4 0  9991
2 29970 098.9580 000.8532 0100735 306.1251 183.5469 14.36705666652766
0 FENGYUN 1C DEB
1 29971U 99025KV  19184.79761253 +.00000105 +00000-0 +82797-4 0  9999
2 29971 098.9748 223.3178 0025648 017.4135 042.2117 14.11166011640893
0 FENGYUN 1C DEB
1 29972U 99025KW  19185.52280987  .00000329  00000-0  10783-3 0  9995
2 29972  98.9277  42.9299 0093737 243.9585 186.0092 14.43069564654196
0 FENGYUN 1C DEB
1 29973U 99025KX  19184.93361206 +.00000046 +00000-0 +58090-4 0  9994
2 29973 098.9446 213.0267 0062364 227.5510 251.9686 14.01589478637107
0 FENGYUN 1C DEB
1 29974U 99025KY  19185.13655509  .00000497  00000-0  33071-3 0  9991
2 29974  99.0249 255.7434 0051281 196.6417 225.1423 14.05290808638112
0 FENGYUN 1C DEB
1 29975U 99025KZ  19184.86367844 -.00000185  00000-0 -93570-4 0  9990
2 29975  99.2852 145.7880 0114148 293.3175 118.7647 13.96945813635749
0 FENGYUN 1C DEB
1 29976U 99025LA  19185.51697935 -.00000009  00000-0  19844-4 0  9997
2 29976  99.0222 214.7703 0274291 242.7100 281.2537 13.95554647635027
0 FENGYUN 1C DEB
1 29977U 99025LB  19185.03105281  .00000153  00000-0  12659-3 0  9998
2 29977  98.3847 199.3869 0137995  30.4284  24.2599 13.97076865634494
0 FENGYUN 1C DEB
1 29978U 99025LC  19184.96512507 -.00000070 +00000-0 -16817-4 0  9994
2 29978 099.3591 202.1408 0076260 341.4889 076.6412 13.95123094634903
0 FENGYUN 1C DEB
1 29979U 99025LD  19185.45398215  .00000133  00000-0  75571-4 0  9998
2 29979  98.6500 256.0157 0114442 171.6999 256.2838 14.21158109646260
0 FENGYUN 1C DEB
1 29980U 99025LE  19184.94522316 +.00000069 +00000-0 +66546-4 0  9994
2 29980 098.7522 077.8435 0090027 046.1881 016.6521 14.04963310639317
0 FENGYUN 1C DEB
1 29981U 99025LF  19185.20305816  .00011225  00000-0  21162-3 0  9999
2 29981  98.8646  66.2910 0039345 202.2815 157.6723 15.47873317676859
0 FENGYUN 1C DEB
1 29982U 99025LG  19185.50726311  .00000182  00000-0  50115-4 0  9991
2 29982  99.4077  35.5428 0148010 151.1385 267.3785 14.54606953660152
0 FENGYUN 1C DEB
1 29983U 99025LH  19184.74765104 +.00001309 +00000-0 +28554-3 0  9993
2 29983 099.1753 224.2790 0073419 250.5113 175.1587 14.58279363656676
0 FENGYUN 1C DEB
1 29985U 99025LK  19184.96402167 +.00000013 +00000-0 +32403-4 0  9996
2 29985 098.9472 214.1714 0029141 021.3664 043.6285 14.09875972641789
0 FENGYUN 1C DEB
1 29986U 99025LL  19184.63270928 +.00000384 +00000-0 +22511-3 0  9998
2 29986 099.3879 077.7224 0027726 137.7240 252.0155 14.14368667641230
0 FENGYUN 1C DEB
1 29987U 99025LM  19185.31463470  .00000681  00000-0  48898-3 0  9997
2 29987  98.9658  87.0345 0095676 303.1094 175.4887 13.98289628633763
0 FENGYUN 1C DEB
1 29988U 99025LN  19184.96074368 +.00000299 +00000-0 +12967-3 0  9995
2 29988 098.8836 237.1960 0179949 068.5981 053.0601 14.23120494644182
0 FENGYUN 1C DEB
1 29989U 99025LP  19184.78311524  .00000003  00000-0  21300-4 0  9999
2 29989  98.6428 215.5460 0127851  99.0932 314.1106 14.13991904643443
0 FENGYUN 1C DEB
1 29991U 99025LR  19185.15788295  .00000900  00000-0  38477-3 0  9995
2 29991 102.2074 124.4305 0005092 167.5559 247.7043 14.29149029645419
0 FENGYUN 1C DEB
1 29992U 99025LS  19185.04129385 -.00000062  00000-0 -99938-5 0  9995
2 29992  98.8046 211.7030 0089879   5.2477  46.9431 14.10687366642087
0 FENGYUN 1C DEB
1 29993U 99025LT  19184.48922905  .00000054  00000-0  58376-4 0  9991
2 29993  99.0946 210.5391 0040609  72.2664 288.2930 14.07429054640567
0 FENGYUN 1C DEB
1 29994U 99025LU  19185.06977444 -.00000267  00000-0 -13573-3 0  9992
2 29994  99.1381 220.5501 0136117 260.8535 151.8818 14.01169576637579
0 FENGYUN 1C DEB
1 29996U 99025LW  19184.88425191  .00000283  00000-0  22051-3 0  9997
2 29996  99.2619 148.6701 0152386  44.0608   9.4052 13.95041894632215
0 FENGYUN 1C DEB
1 29997U 99025LX  19185.07812060  .00000061  00000-0  73818-4 0  9997
2 29997  99.0703 218.8771 0079702 342.1263  43.3595 13.96868810635100
0 FENGYUN 1C DEB
1 29998U 99025LY  19185.19732837  .00000151  00000-0  95412-4 0  9998
2 29998  99.2831  82.4609 0005419 126.4014 233.7660 14.19044194644364
0 FENGYUN 1C DEB
1 29999U 99025LZ  19185.12225159  .00000004  00000-0  19609-4 0  9997
2 29999  98.6328 224.0391 0200547  70.1573 356.4965 14.15833608643941
0 TITAN 3C TRANSTAGE DEB
1 30000U 68081J   19185.04135642  .00000083  00000-0  00000+0 0  9995
2 30000   4.7026 309.5469 0119863   3.2694  23.6539  1.00908243 53566
